[{"OBJECT_NAME":"STEP CUBE LAB-II","OBJECT_ID":"2022-065D","EPOCH":"2026-03-09T21:53:04.022304","MEAN_MOTION":14.63120511,"ECCENTRICITY":0.00081203,"INCLINATION":98.2053,"RA_OF_ASC_NODE":213.2152,"ARG_OF_PERICENTER":344.1456,"MEAN_ANOMALY":15.9491,"EPHEMERIS_TYPE":0,"CLASSIFICATION_TYPE":"U","NORAD_CAT_ID":52897,"ELEMENT_SET_NO":999,"REV_AT_EPOCH":19698,"BSTAR":0.00036922387,"MEAN_MOTION_DOT":1.85e-5,"MEAN_MOTION_DDOT":0},{"OBJECT_NAME":"COSMOS 2251 DEB","OBJECT_ID":"1993-036BFX","EPOCH":"2026-03-01T23:59:26.963232","MEAN_MOTION":14.66239686,"ECCENTRICITY":0.0041685,"INCLINATION":74.0339,"RA_OF_ASC_NODE":301.2001,"ARG_OF_PERICENTER":5.5095,"MEAN_ANOMALY":354.6523,"EPHEMERIS_TYPE":0,"CLASSIFICATION_TYPE":"U","NORAD_CAT_ID":37101,"ELEMENT_SET_NO":999,"REV_AT_EPOCH":66833,"BSTAR":0.0010266,"MEAN_MOTION_DOT":5.702e-5,"MEAN_MOTION_DDOT":0}]
